SENTINEL-6              
1 46984U 20086A   24030.49070519 -.00000036  00000+0  10777-3 0  9995
2 46984  66.0415 139.3446 0007745 270.1693  89.8435 12.80930329149183
